STARLINK-30106
1 56288U 23056C   26061.16668981  .01307343  00000+0  65018-1 0  9996
2 56288  42.9994 250.5552 0001233 257.5819 308.3489 15.14107247  5819
